[{"OBJECT_NAME":"STARLINK-11501 [DTC]","OBJECT_ID":"2024-237B","EPOCH":"2025-12-27T17:08:56.434848","MEAN_MOTION":15.71021499,"ECCENTRICITY":0.000466,"INCLINATION":42.9986,"RA_OF_ASC_NODE":130.3487,"ARG_OF_PERICENTER":270.1006,"MEAN_ANOMALY":89.9328,"EPHEMERIS_TYPE":0,"CLASSIFICATION_TYPE":"U","NORAD_CAT_ID":62268,"ELEMENT_SET_NO":999,"REV_AT_EPOCH":6168,"BSTAR":0.0026244552,"MEAN_MOTION_DOT":0.00353799,"MEAN_MOTION_DDOT":0},{"OBJECT_NAME":"STARLINK-11491 [DTC]","OBJECT_ID":"2024-237C","EPOCH":"2025-12-27T18:32:52.168992","MEAN_MOTION":15.70814662,"ECCENTRICITY":0.00014738,"INCLINATION":42.9981,"RA_OF_ASC_NODE":129.9231,"ARG_OF_PERICENTER":299.2758,"MEAN_ANOMALY":60.7962,"EPHEMERIS_TYPE":0,"CLASSIFICATION_TYPE":"U","NORAD_CAT_ID":62269,"ELEMENT_SET_NO":999,"REV_AT_EPOCH":6174,"BSTAR":0.0029047728,"MEAN_MOTION_DOT":0.00389892,"MEAN_MOTION_DDOT":0},{"OBJECT_NAME":"STARLINK-11479 [DTC]","OBJECT_ID":"2024-237D","EPOCH":"2025-12-27T15:52:40.809216","MEAN_MOTION":15.70922843,"ECCENTRICITY":8.552e-5,"INCLINATION":42.9999,"RA_OF_ASC_NODE":130.8161,"ARG_OF_PERICENTER":243.368,"MEAN_ANOMALY":116.71,"EPHEMERIS_TYPE":0,"CLASSIFICATION_TYPE":"U","NORAD_CAT_ID":62270,"ELEMENT_SET_NO":999,"REV_AT_EPOCH":6172,"BSTAR":0.0025170465,"MEAN_MOTION_DOT":0.00337156,"MEAN_MOTION_DDOT":0},{"OBJECT_NAME":"STARLINK-11489 [DTC]","OBJECT_ID":"2024-237E","EPOCH":"2025-12-26T17:52:47.947296","MEAN_MOTION":15.70880722,"ECCENTRICITY":0.00019357,"INCLINATION":42.9975,"RA_OF_ASC_NODE":136.8631,"ARG_OF_PERICENTER":281.4663,"MEAN_ANOMALY":78.5987,"EPHEMERIS_TYPE":0,"CLASSIFICATION_TYPE":"U","NORAD_CAT_ID":62271,"ELEMENT_SET_NO":999,"REV_AT_EPOCH":6157,"BSTAR":0.00043908247,"MEAN_MOTION_DOT":0.00056373,"MEAN_MOTION_DDOT":0},{"OBJECT_NAME":"STARLINK-11494 [DTC]","OBJECT_ID":"2024-237F","EPOCH":"2025-12-27T17:47:10.385952","MEAN_MOTION":15.70925046,"ECCENTRICITY":0.00022876,"INCLINATION":43.001,"RA_OF_ASC_NODE":130.5582,"ARG_OF_PERICENTER":257.1278,"MEAN_ANOMALY":102.9334,"EPHEMERIS_TYPE":0,"CLASSIFICATION_TYPE":"U","NORAD_CAT_ID":62272,"ELEMENT_SET_NO":999,"REV_AT_EPOCH":6168,"BSTAR":0.0016782392,"MEAN_MOTION_DOT":0.00221525,"MEAN_MOTION_DDOT":0},{"OBJECT_NAME":"STARLINK-11333 [DTC]","OBJECT_ID":"2024-237G","EPOCH":"2025-12-28T01:40:16.670496","MEAN_MOTION":15.71285153,"ECCENTRICITY":0.00032065,"INCLINATION":42.9995,"RA_OF_ASC_NODE":128.729,"ARG_OF_PERICENTER":312.9177,"MEAN_ANOMALY":47.1421,"EPHEMERIS_TYPE":0,"CLASSIFICATION_TYPE":"U","NORAD_CAT_ID":62273,"ELEMENT_SET_NO":999,"REV_AT_EPOCH":6178,"BSTAR":0.0028749067,"MEAN_MOTION_DOT":0.00393765,"MEAN_MOTION_DDOT":0},{"OBJECT_NAME":"STARLINK-11504 [DTC]","OBJECT_ID":"2024-237H","EPOCH":"2025-12-28T05:52:00.743520","MEAN_MOTION":15.70900672,"ECCENTRICITY":9.6e-5,"INCLINATION":42.9957,"RA_OF_ASC_NODE":127.4517,"ARG_OF_PERICENTER":320.826,"MEAN_ANOMALY":39.2538,"EPHEMERIS_TYPE":0,"CLASSIFICATION_TYPE":"U","NORAD_CAT_ID":62274,"ELEMENT_SET_NO":999,"REV_AT_EPOCH":6176,"BSTAR":0.0019385289,"MEAN_MOTION_DOT":0.00256786,"MEAN_MOTION_DDOT":0},{"OBJECT_NAME":"STARLINK-11495 [DTC]","OBJECT_ID":"2024-237J","EPOCH":"2025-12-28T02:03:12.745152","MEAN_MOTION":15.7092085,"ECCENTRICITY":0.00013085,"INCLINATION":42.9984,"RA_OF_ASC_NODE":128.8576,"ARG_OF_PERICENTER":310.2768,"MEAN_ANOMALY":49.7985,"EPHEMERIS_TYPE":0,"CLASSIFICATION_TYPE":"U","NORAD_CAT_ID":62275,"ELEMENT_SET_NO":999,"REV_AT_EPOCH":6173,"BSTAR":0.0021313906,"MEAN_MOTION_DOT":0.00283537,"MEAN_MOTION_DDOT":0},{"OBJECT_NAME":"STARLINK-11498 [DTC]","OBJECT_ID":"2024-237K","EPOCH":"2025-12-27T18:48:09.285984","MEAN_MOTION":15.70859094,"ECCENTRICITY":0.00012798,"INCLINATION":42.9989,"RA_OF_ASC_NODE":130.0047,"ARG_OF_PERICENTER":277.4604,"MEAN_ANOMALY":82.6118,"EPHEMERIS_TYPE":0,"CLASSIFICATION_TYPE":"U","NORAD_CAT_ID":62276,"ELEMENT_SET_NO":999,"REV_AT_EPOCH":6174,"BSTAR":0.0011721025,"MEAN_MOTION_DOT":0.00152867,"MEAN_MOTION_DDOT":0},{"OBJECT_NAME":"STARLINK-11484 [DTC]","OBJECT_ID":"2024-237L","EPOCH":"2025-12-27T09:54:05.362848","MEAN_MOTION":15.70894985,"ECCENTRICITY":0.0001518,"INCLINATION":42.9977,"RA_OF_ASC_NODE":132.3887,"ARG_OF_PERICENTER":270.1509,"MEAN_ANOMALY":89.9185,"EPHEMERIS_TYPE":0,"CLASSIFICATION_TYPE":"U","NORAD_CAT_ID":62277,"ELEMENT_SET_NO":999,"REV_AT_EPOCH":6168,"BSTAR":0.0016252545,"MEAN_MOTION_DOT":0.00214046,"MEAN_MOTION_DDOT":0},{"OBJECT_NAME":"STARLINK-11487 [DTC]","OBJECT_ID":"2024-237M","EPOCH":"2025-12-28T01:47:56.573376","MEAN_MOTION":15.71140979,"ECCENTRICITY":0.00027778,"INCLINATION":42.9985,"RA_OF_ASC_NODE":128.7693,"ARG_OF_PERICENTER":35.0037,"MEAN_ANOMALY":325.1013,"EPHEMERIS_TYPE":0,"CLASSIFICATION_TYPE":"U","NORAD_CAT_ID":62278,"ELEMENT_SET_NO":999,"REV_AT_EPOCH":6178,"BSTAR":0.0019121913,"MEAN_MOTION_DOT":0.00255843,"MEAN_MOTION_DDOT":0},{"OBJECT_NAME":"STARLINK-11499 [DTC]","OBJECT_ID":"2024-237N","EPOCH":"2025-12-27T18:26:42.964512","MEAN_MOTION":15.70841082,"ECCENTRICITY":0.0002038,"INCLINATION":42.9995,"RA_OF_ASC_NODE":130.778,"ARG_OF_PERICENTER":260.0873,"MEAN_ANOMALY":99.9765,"EPHEMERIS_TYPE":0,"CLASSIFICATION_TYPE":"U","NORAD_CAT_ID":62279,"ELEMENT_SET_NO":999,"REV_AT_EPOCH":6166,"BSTAR":0.0024775256,"MEAN_MOTION_DOT":0.00330436,"MEAN_MOTION_DDOT":0},{"OBJECT_NAME":"STARLINK-33548","OBJECT_ID":"2024-237P","EPOCH":"2025-12-28T01:35:59.105184","MEAN_MOTION":15.27642223,"ECCENTRICITY":2.703e-5,"INCLINATION":42.9972,"RA_OF_ASC_NODE":249.9907,"ARG_OF_PERICENTER":326.9404,"MEAN_ANOMALY":33.143,"EPHEMERIS_TYPE":0,"CLASSIFICATION_TYPE":"U","NORAD_CAT_ID":62280,"ELEMENT_SET_NO":999,"REV_AT_EPOCH":6036,"BSTAR":0.0021072315,"MEAN_MOTION_DOT":0.00058295,"MEAN_MOTION_DDOT":0},{"OBJECT_NAME":"STARLINK-33544","OBJECT_ID":"2024-237Q","EPOCH":"2025-12-28T02:53:28.203648","MEAN_MOTION":15.27596936,"ECCENTRICITY":0.00019163,"INCLINATION":43.0025,"RA_OF_ASC_NODE":260.7823,"ARG_OF_PERICENTER":273.5779,"MEAN_ANOMALY":86.4853,"EPHEMERIS_TYPE":0,"CLASSIFICATION_TYPE":"U","NORAD_CAT_ID":62281,"ELEMENT_SET_NO":999,"REV_AT_EPOCH":6024,"BSTAR":0.0010901559,"MEAN_MOTION_DOT":0.00029874,"MEAN_MOTION_DDOT":0},{"OBJECT_NAME":"STARLINK-33560","OBJECT_ID":"2024-237R","EPOCH":"2025-12-28T02:27:34.092288","MEAN_MOTION":15.27603656,"ECCENTRICITY":1.761e-5,"INCLINATION":42.9959,"RA_OF_ASC_NODE":260.6432,"ARG_OF_PERICENTER":278.5918,"MEAN_ANOMALY":81.4913,"EPHEMERIS_TYPE":0,"CLASSIFICATION_TYPE":"U","NORAD_CAT_ID":62282,"ELEMENT_SET_NO":999,"REV_AT_EPOCH":6015,"BSTAR":0.0014430519,"MEAN_MOTION_DOT":0.0003969,"MEAN_MOTION_DDOT":0},{"OBJECT_NAME":"STARLINK-33547","OBJECT_ID":"2024-237S","EPOCH":"2025-12-28T03:04:35.552064","MEAN_MOTION":15.27608133,"ECCENTRICITY":0.00020795,"INCLINATION":42.9985,"RA_OF_ASC_NODE":249.5885,"ARG_OF_PERICENTER":247.9501,"MEAN_ANOMALY":112.113,"EPHEMERIS_TYPE":0,"CLASSIFICATION_TYPE":"U","NORAD_CAT_ID":62283,"ELEMENT_SET_NO":999,"REV_AT_EPOCH":6037,"BSTAR":0.00098360176,"MEAN_MOTION_DOT":0.00026927,"MEAN_MOTION_DDOT":0}]
