STARLINK-11501 [DTC]    
1 62268U 24237B   25361.71454207  .00353799  00000+0  26245-2 0  9995
2 62268  42.9986 130.3487 0004660 270.1006  89.9328 15.71021499 61681
STARLINK-11491 [DTC]    
1 62269U 24237C   25361.77282603  .00389892  00000+0  29048-2 0  9998
2 62269  42.9981 129.9231 0001473 299.2758  60.7962 15.70814662 61742
STARLINK-11479 [DTC]    
1 62270U 24237D   25361.66158344  .00337156  00000+0  25170-2 0  9990
2 62270  42.9999 130.8161 0000855 243.3680 116.7100 15.70922843 61728
STARLINK-11489 [DTC]    
1 62271U 24237E   25360.74499939  .00056373  00000+0  43908-3 0  9996
2 62271  42.9975 136.8631 0001935 281.4663  78.5987 15.70880722 61575
STARLINK-11494 [DTC]    
1 62272U 24237F   25361.74109243  .00221525  00000+0  16782-2 0  9996
2 62272  43.0010 130.5582 0002287 257.1278 102.9334 15.70925046 61686
STARLINK-11333 [DTC]    
1 62273U 24237G   25362.06963739  .00393765  00000+0  28749-2 0  9993
2 62273  42.9995 128.7290 0003206 312.9177  47.1421 15.71285153 61789
STARLINK-11504 [DTC]    
1 62274U 24237H   25362.24445305  .00256786  00000+0  19385-2 0  9995
2 62274  42.9957 127.4517 0000960 320.8260  39.2538 15.70900672 61769
STARLINK-11495 [DTC]    
1 62275U 24237J   25362.08556418  .00283537  00000+0  21314-2 0  9995
2 62275  42.9984 128.8576 0001308 310.2768  49.7985 15.70920850 61732
STARLINK-11498 [DTC]    
1 62276U 24237K   25361.78344081  .00152867  00000+0  11721-2 0  9995
2 62276  42.9989 130.0047 0001279 277.4604  82.6118 15.70859094 61742
STARLINK-11484 [DTC]    
1 62277U 24237L   25361.41256207  .00214046  00000+0  16253-2 0  9991
2 62277  42.9977 132.3887 0001518 270.1509  89.9185 15.70894985 61682
STARLINK-11487 [DTC]    
1 62278U 24237M   25362.07496034  .00255843  00000+0  19122-2 0  9997
2 62278  42.9985 128.7693 0002777  35.0037 325.1013 15.71140979 61782
STARLINK-11499 [DTC]    
1 62279U 24237N   25361.76855283  .00330436  00000+0  24775-2 0  9990
2 62279  42.9995 130.7780 0002038 260.0873  99.9765 15.70841082 61661
STARLINK-33548          
1 62280U 24237P   25362.06665631  .00058295  00000+0  21072-2 0  9999
2 62280  42.9972 249.9907 0000270 326.9404  33.1430 15.27642223 60363
STARLINK-33544          
1 62281U 24237Q   25362.12046532  .00029874  00000+0  10902-2 0  9991
2 62281  43.0025 260.7823 0001916 273.5779  86.4853 15.27596936 60249
STARLINK-33560          
1 62282U 24237R   25362.10247792  .00039690  00000+0  14431-2 0  9999
2 62282  42.9959 260.6432 0000176 278.5918  81.4913 15.27603656 60156
STARLINK-33547          
1 62283U 24237S   25362.12818926  .00026927  00000+0  98360-3 0  9998
2 62283  42.9985 249.5885 0002079 247.9501 112.1130 15.27608133 60378
